CZ-4B R/B               
1 28059U 03049C   19044.37701150 -.00000043  00000-0  15711-5 0  9990
2 28059  98.5039 310.0905 0049752 195.2701 279.7495 14.52552203811675
CZ-2C R/B               
1 28222U 04012C   19043.93134405  .00000244  00000-0  18832-4 0  9995
2 28222  97.6097   2.5468 0046003 269.7294 127.4359 15.09970747811968
SL-16 R/B               
1 28353U 04021B   19044.03944439 -.00000018  00000-0  15377-4 0  9999
2 28353  70.9966 247.8605 0005275 336.0820  24.0056 14.14211665757819
CZ-2C R/B               
1 28480U 04046B   19044.26783102  .00000014  00000-0  21044-4 0  9993
2 28480  98.1489 110.2980 0141018 234.8070 166.6129 14.25693177740594
ARIANE 5 R/B            
1 28499U 04049H   19044.20658241  .00000016  00000-0  92733-5 0  9991
2 28499  98.0514 139.6655 0093393  58.3328 358.1597 14.79947510763621
CZ-2D R/B               
1 28738U 05024B   19044.48292420  .00000314  00000-0  22086-4 0  9998
2 28738  97.4293  77.0229 0013634  77.7682 282.5075 15.11719317747390
SUZAKU (ASTRO-EII)      
1 28773U 05025A   19043.89960261  .00000764  00000-0  33435-4 0  9996
2 28773  31.3834 324.7965 0004665 309.9753  50.0485 15.16904977749397
ALOS (DAICHI)           
1 28931U 06002A   19044.39310437  .00000123  00000-0  32800-4 0  9992
2 28931  97.8173  50.2326 0000686 117.6655 242.4637 14.62578769696069
H-2A R/B                
1 28932U 06002B   19044.50367443  .00000256  00000-0  29735-4 0  9995
2 28932  98.2646   3.7616 0090209 124.4941 353.9731 14.91893752708194
AKARI (ASTRO-F)         
1 28939U 06005A   19043.81649677  .00002091  00000-0  61550-4 0  9990
2 28939  98.1911 319.4037 0097577 238.4440 120.7244 15.31921592705728
RESURS-DK 1             
1 29228U 06021A   19044.48451065  .00000049  00000-0  11074-4 0  9993
2 29228  69.9370 355.1993 0003223 176.0567 184.0619 15.02404750699153
GENESIS 1               
1 29252U 06029A   19044.48815774  .00000316  00000-0  25602-4 0  9998
2 29252  64.5013 103.9118 0054026 260.2494  99.2525 15.17573115693813
CZ-4B R/B               
1 29507U 06046C   19043.67727846 -.00000222  00000-0 -12198-4 0  9996
2 29507  97.7851  61.5235 0046619  13.0417 347.2000 15.00451152671820
CZ-2C R/B               
1 31114U 07010B   19044.48929029 -.00000051  00000-0 -48622-5 0  9994
2 31114  98.3310 283.4427 0058614 253.7712 105.7011 14.19289722613513
COSMO-SKYMED 1          
1 31598U 07023A   19044.41860158  .00000337  00000-0  48931-4 0  9991
2 31598  97.8871 229.5559 0001557  83.9294 276.2103 14.82159392632240
GENESIS 2               
1 31789U 07028A   19043.77835966  .00000258  00000-0  23360-4 0  9996
2 31789  64.5038 146.4864 0040527 304.6626  55.0679 15.16808661640749
COSMOS 2428             
1 31792U 07029A   19044.48722665 -.00000296  00000-0 -13434-3 0  9995
2 31792  70.9575 220.9499 0007081  78.1819 282.0095 14.12548096599685
SL-16 R/B               
1 31793U 07029B   19044.52994361  .00000268  00000-0  16477-3 0  9992
2 31793  70.9751 195.4996 0002485 273.4428 148.3758 14.14412132600450
KORONAS-FOTON           
1 33504U 09003A   19044.38157102  .00000624  00000-0  31270-4 0  9991
2 33504  82.4446 350.3293 0019402 169.5785 190.5854 15.15339962553264
H-2A R/B                
1 38341U 12025E   19043.97150845  .00000113  00000-0  20853-4 0  9992
2 38341  98.4337 164.3497 0055768  10.3760 349.8590 14.83847949364713
CUSAT 2 & FALCON 9 R/B  
1 39271U 13055G   19043.62436042  .00003956  00000-0  97807-4 0  9998
2 39271  80.9665  73.1732 0606075 201.4136 156.0694 14.43715574279800
SL-4 R/B                
1 39679U 14021B   19044.51674623 -.00000035  00000-0  16988-4 0  9999
2 39679  51.6145 220.3128 0173509  48.6799 312.8957 15.06002540265500
ALOS-2                  
1 39766U 14029A   19044.44350517  .00000096  00000-0  19788-4 0  9996
2 39766  97.9203 143.0762 0001464  82.7521 277.3864 14.79473132255242
SL-27 R/B               
1 40354U 14084B   19044.18938216  .00000814  00000-0  21574-4 0  9995
2 40354  74.7398 321.7942 0037283  36.7722 323.6036 15.39508021233076
ASTRO-H (HITOMI)        
1 41337U 16012A   19043.91054271  .00000207  00000-0  98091-5 0  9995
2 41337  31.0044 239.6941 0012619 264.1223  95.7973 14.98547662163850
TIANGONG-2              
1 41765U 16057A   19044.34342216  .00003760  00000-0  48576-4 0  9995
2 41765  42.7854 345.3347 0006187 131.6046  11.9906 15.60670735137688
SHENZHOU-11 MODULE      
1 41868U 16061G   19043.90314815  .00010715  00000-0  66865-4 0  9998
2 41868  42.7931 288.1660 0005681 255.9436 278.0045 15.76956077128224
